#aV2012 10  1  0  0  0.00000000     288 DD+AD WGS84 FIT  NGA
## 1708  86400.00000000   300.00000000 56201 0.0000000000000
+   31     1  2  3  4  5  6  7  8  9 10 11 12 13 14 15 16 17
+         18 19 20 21 22 23 25 26 27 28 29 30 31 32  0  0  0
+          0  0  0  0  0  0  0  0  0  0  0  0  0  0  0  0  0
+          0  0  0  0  0  0  0  0  0  0  0  0  0  0  0  0  0
+          0  0  0  0  0  0  0  0  0  0  0  0  0  0  0  0  0
++         2  2  2  2  2  2  2  2  2  2  2  2  2  2  2  2  2
++         2  2  2  2  2  2  2  2  2  2  2  2  2  2  2  0  0
++         0  0  0  0  0  0  0  0  0  0  0  0  0  0  0  0  0
++         0  0  0  0  0  0  0  0  0  0  0  0  0  0  0  0  0
++         0  0  0  0  0  0  0  0  0  0  0  0  0  0  0  0  0
%c cc cc ccc ccc cccc cccc cccc cccc ccccc ccccc ccccc ccccc
%c cc cc ccc ccc cccc cccc cccc cccc ccccc ccccc ccccc ccccc
%f  0.0000000  0.000000000  0.00000000000  0.000000000000000
%f  0.0000000  0.000000000  0.00000000000  0.000000000000000
%i    0    0    0    0      0      0      0      0         0
%i    0    0    0    0      0      0      0      0         0
/*      NGA, ST. LOUIS,MO.                                  
/*   EPHEMERIS COMPUTED FROM  1 DAYS OF DATA
/*   EPOCHA SMOOTHER  
/* CCCCCCCCCCCCCCCCCCCCCCCCCCCCCCCCCCCCCCCCCCCCCCCCCCCCCCCCC
*  2012 10  1  3  0  0.00000000                                                 
P  1 -14309.298194  21473.451401   6151.961887    275.866675                    
V  1    678.225634  -8291.412928  30486.699350      0.015894                    
P  2  16884.050827  -2010.089009 -20136.761823    404.568680                    
V  2  -8954.935423  24565.677930 -10392.998936      0.011650                    
P  3 -20332.433631  -3743.342578  16314.103126    108.671677                    
V  3 -13239.339337 -17282.154377 -19619.781921      0.050297                    
P  4  11014.079038  12689.056213 -20777.960116      2.887349                    
V  4 -11546.938329  23240.320497   8482.978621      0.112201                    
P  5  26542.737647  -1943.581601  -1130.572128   -356.125953                    
V  5  -1086.477000   3158.730613 -31387.386124     -0.028738                    
P  6 -20818.370240  -9319.264218  13971.827482    495.760670                    
V  6  -9188.399865 -15091.652732 -23611.921371     -0.090723                    
P  7  -5525.588622  24553.749987   8052.396387    128.131339                    
V  7  -6520.628068   8250.441346 -30030.385096      0.043941                    
P  8   3340.684308  18329.883041  18760.746624      2.242593                    
V  8 -12941.509160  19983.887006 -17874.005890      0.000571                    
P  9  15482.582057 -18954.643370   9844.097055    189.241025                    
V  9  -3575.127421  12910.762866  28821.136720      0.026267                    
P 10  18719.042430  10273.639700 -16310.971310    -53.640470                    
V 10 -19885.648498   3510.062811 -20546.715428     -0.013620                    
P 11 -13271.476137  18541.241719  12963.087870   -308.191489                    
V 11  -1740.167646 -17882.307647  23372.436076     -0.038852                    
P 12  18429.537214 -11536.909295 -15140.771800     93.768712                    
V 12  19298.769527    250.227231  23512.092682      0.020268                    
P 13   2254.247087  22417.395555 -14106.144189    177.483837                    
V 13 -10353.708190 -14433.770065 -24934.993172     -0.026056                    
P 14 -14558.826298 -22288.993964   -841.773942    213.867333                    
V 14   1173.008444  -2261.268106  31981.025414      0.008468                    
P 15  13254.254856  -8289.762306  21473.173459    -96.381433                    
V 15  16471.795442  21818.724709  -1519.066916     -0.007528                    
P 16 -26701.404702    794.178309  -1075.994474   -247.090580                    
V 16   1234.694979  -1945.616762 -31971.601713     -0.007302                    
P 17  15247.667558  21889.536526   -791.819788     91.855528                    
V 17  -1435.391642   2420.199814  31630.460990     -0.032539                    
P 18  -2114.658301 -15951.851749  21516.838120    217.525911                    
V 18  26448.826072  -2447.216162    439.696605      0.018316                    
P 19 -14749.516641   4664.938538  21552.153033   -308.779944                    
V 19 -13856.832449 -23752.267658  -3934.519774     -0.034810                    
P 20 -15620.895738  14442.276742 -16017.814910     69.418236                    
V 20 -20320.927488    517.488024  20560.817268      0.009122                    
P 21   1732.910604 -23962.359130  11196.845183   -253.059305                    
V 21   8837.083816 -11061.965437 -26809.457979     -0.023923                    
P 22 -16719.298907 -11540.381960  17363.275736    148.684598                    
V 22  21456.663331  -4140.782931  17977.012661      0.004924                    
P 23  -7373.345354  14773.297345 -20663.199120    159.015166                    
V 23 -16073.310472 -21058.824317  -9675.489871     -0.039129                    
P 25   5444.080005 -15172.296556 -21138.203977     44.748076                    
V 25  26644.223456  -2252.407841   8556.762105      0.014333                    
P 26  17783.999038   5923.891228  18339.945857   -262.158368                    
V 26  11485.404779  21568.346959 -17175.927604      0.133038                    
P 27  16613.366603 -14817.885798  14655.267522    437.148410                    
V 27  -5045.193258  17123.441651  24542.623305      0.041269                    
P 28  13095.617654  12715.616113  19932.142519    190.645423                    
V 28 -23909.128361   1957.578078  14675.364784      0.036271                    
P 29   -381.406596 -21066.419465 -16147.028951    361.231642                    
V 29  12781.316395  16223.622549 -21357.918255      0.040060                    
P 30 -23315.087987  -4050.093689 -12399.717785   -386.661583                    
V 30  14428.386590  -5235.258635 -26204.750783      0.184017                    
P 31 -11590.958843  -9478.149855 -21725.746081    277.849322                    
V 31  12387.284066 -25124.147583   4552.923647      0.024048                    
P 32 -23219.438028   7329.966147  -9795.322754   -493.569595                    
V 32 -12936.608215  -3039.354893  28349.482974     -0.039525                    
EOF
